ONEWEB-0012             
1 44057U 19010A   24059.94275818 -.00000048  00000+0 -15801-3 0  9996
2 44057  87.9082  35.8202 0002548  67.4108 292.7292 13.16593180241132
ONEWEB-0010             
1 44058U 19010B   24059.89209616 -.00000035  00000+0 -12447-3 0  9993
2 44058  87.9080  35.8083 0001716  64.1469 295.9839 13.16594508241179
ONEWEB-0008             
1 44059U 19010C   24059.91742477  .00000130  00000+0  30698-3 0  9996
2 44059  87.9082  35.8050 0002005  91.3241 268.8120 13.16593348241294
ONEWEB-0007             
1 44060U 19010D   24059.74218618 -.00000098  00000+0 -29491-3 0  9998
2 44060  87.8953  66.2654 0002162  79.1512 280.9862 13.15550003241006
ONEWEB-0006             
1 44061U 19010E   24059.74612927 -.00000115  00000+0 -34077-3 0  9996
2 44061  87.8945  66.2581 0001991  79.1231 281.0124 13.15546547241050
ONEWEB-0011             
1 44062U 19010F   24059.94422351  .00000039  00000+0  68344-4 0  9997
2 44062  87.8952  66.2170 0001618  86.2264 273.9051 13.15548417241073
ONEWEB-0013             
1 45131U 20008A   24060.15262784 -.00000350  00000+0 -10555-2 0  9998
2 45131  87.8572 221.4727 0002561  94.1020 266.0399 13.09362324197025
ONEWEB-0017             
1 45132U 20008B   24059.90763466  .00000194  00000+0  52058-3 0  9992
2 45132  87.8953 203.0034 0001466 101.9173 258.2119 13.10376465198033
